[
    {
        "Altitude(m)": 611965.2150591388,
        "Argument of Periapsis(deg)": 0.0,
        "Eccentricity": 0.0,
        "Inclination(deg)": 60.0,
        "Latitude(deg)": 59.140251602322124,
        "Longitude(deg)": 163.9699658331561,
        "Mean Anomaly(deg)": 81.81819999999999,
        "RAAN(deg)": 190.0,
        "Satellite Name": "Test1 841",
        "Satellite Number": 841,
        "Semi-Major Axis(m)": 6980739.136638005,
        "Time(s)": 0
    },
    {
        "Altitude(m)": 611995.8399012742,
        "Argument of Periapsis(deg)": 0.00010418945913296404,
        "Eccentricity": 0.0,
        "Inclination(deg)": 60.0,
        "Latitude(deg)": 59.28334981392631,
        "Longitude(deg)": 165.10333181338353,
        "Mean Anomaly(deg)": 82.43830614546184,
        "RAAN(deg)": 189.99957995086027,
        "Satellite Name": "Test1 841",
        "Satellite Number": 841,
        "Semi-Major Axis(m)": 6980739.136638005,
        "Time(s)": 10
    },
    {
        "Altitude(m)": 612024.1238521339,
        "Argument of Periapsis(deg)": 0.0002083789182659281,
        "Eccentricity": 0.0,
        "Inclination(deg)": 60.0,
        "Latitude(deg)": 59.415765927883804,
        "Longitude(deg)": 166.24622124875853,
        "Mean Anomaly(deg)": 83.05841229092367,
        "RAAN(deg)": 189.99915990172053,
        "Satellite Name": "Test1 841",
        "Satellite Number": 841,
        "Semi-Major Axis(m)": 6980739.136638005,
        "Time(s)": 20
    },
    {
        "Altitude(m)": 612050.0506931787,
        "Argument of Periapsis(deg)": 0.00031256837739889213,
        "Eccentricity": 0.0,
        "Inclination(deg)": 60.0,
        "Latitude(deg)": 59.53736052047906,
        "Longitude(deg)": 167.3980061224814,
        "Mean Anomaly(deg)": 83.67851843638552,
        "RAAN(deg)": 189.9987398525808,
        "Satellite Name": "Test1 841",
        "Satellite Number": 841,
        "Semi-Major Axis(m)": 6980739.136638005,
        "Time(s)": 30
    },
    {
        "Altitude(m)": 612073.6055661169,
        "Argument of Periapsis(deg)": 0.0004167578365318562,
        "Eccentricity": 0.0,
        "Inclination(deg)": 60.0,
        "Latitude(deg)": 59.64800342444843,
        "Longitude(deg)": 168.55802280229457,
        "Mean Anomaly(deg)": 84.29862458184735,
        "RAAN(deg)": 189.99831980344103,
        "Satellite Name": "Test1 841",
        "Satellite Number": 841,
        "Semi-Major Axis(m)": 6980739.136638005,
        "Time(s)": 40
    },
    {
        "Altitude(m)": 612094.7749799215,
        "Argument of Periapsis(deg)": 0.0005209472956648203,
        "Eccentricity": 0.0,
        "Inclination(deg)": 60.0,
        "Latitude(deg)": 59.74757438212235,
        "Longitude(deg)": 169.7255728994969,
        "Mean Anomaly(deg)": 84.91873072730914,
        "RAAN(deg)": 189.9978997543013,
        "Satellite Name": "Test1 841",
        "Satellite Number": 841,
        "Semi-Major Axis(m)": 6980739.136638005,
        "Time(s)": 50
    },
    {
        "Altitude(m)": 612113.5468171759,
        "Argument of Periapsis(deg)": 0.0006251367547977843,
        "Eccentricity": 0.0,
        "Inclination(deg)": 60.0,
        "Latitude(deg)": 59.835963665000065,
        "Longitude(deg)": 170.89992597375817,
        "Mean Anomaly(deg)": 85.53883687277097,
        "RAAN(deg)": 189.99747970516157,
        "Satellite Name": "Test1 841",
        "Satellite Number": 841,
        "Semi-Major Axis(m)": 6980739.136638005,
        "Time(s)": 60
    },
    {
        "Altitude(m)": 612129.9103397919,
        "Argument of Periapsis(deg)": 0.0007293262139307483,
        "Eccentricity": 0.0,
        "Inclination(deg)": 60.0,
        "Latitude(deg)": 59.91307265269561,
        "Longitude(deg)": 172.0803225603037,
        "Mean Anomaly(deg)": 86.15894301823282,
        "RAAN(deg)": 189.99705965602183,
        "Satellite Name": "Test1 841",
        "Satellite Number": 841,
        "Semi-Major Axis(m)": 6980739.136638005,
        "Time(s)": 70
    },
    {
        "Altitude(m)": 612143.8561940637,
        "Argument of Periapsis(deg)": 0.0008335156730637124,
        "Eccentricity": 0.0,
        "Inclination(deg)": 60.0,
        "Latitude(deg)": 59.978814364432594,
        "Longitude(deg)": 173.2659759904408,
        "Mean Anomaly(deg)": 86.77904916369465,
        "RAAN(deg)": 189.99663960688207,
        "Satellite Name": "Test1 841",
        "Satellite Number": 841,
        "Semi-Major Axis(m)": 6980739.136638005,
        "Time(s)": 80
    },
    {
        "Altitude(m)": 612155.3764150884,
        "Argument of Periapsis(deg)": 0.0009377051321966765,
        "Eccentricity": 0.0,
        "Inclination(deg)": 60.0,
        "Latitude(deg)": 60.03311393661782,
        "Longitude(deg)": 174.45607600934983,
        "Mean Anomaly(deg)": 87.39915530915646,
        "RAAN(deg)": 189.99621955774234,
        "Satellite Name": "Test1 841",
        "Satellite Number": 841,
        "Semi-Major Axis(m)": 6980739.136638005,
        "Time(s)": 90
    },
    {
        "Altitude(m)": 612164.4644304924,
        "Argument of Periapsis(deg)": 0.0010418945913296407,
        "Eccentricity": 0.0,
        "Inclination(deg)": 60.0,
        "Latitude(deg)": 60.075909040527144,
        "Longitude(deg)": 175.64979265096366,
        "Mean Anomaly(deg)": 88.01926145461829,
        "RAAN(deg)": 189.99579950860257,
        "Satellite Name": "Test1 841",
        "Satellite Number": 841,
        "Semi-Major Axis(m)": 6980739.136638005,
        "Time(s)": 100
    },
    {
        "Altitude(m)": 612171.1150635431,
        "Argument of Periapsis(deg)": 0.0011460840504626045,
        "Eccentricity": 0.0,
        "Inclination(deg)": 60.0,
        "Latitude(deg)": 60.10715023476543,
        "Longitude(deg)": 176.84627882465506,
        "Mean Anomaly(deg)": 88.63936760008013,
        "RAAN(deg)": 189.9953794594628,
        "Satellite Name": "Test1 841",
        "Satellite Number": 841,
        "Semi-Major Axis(m)": 6980739.136638005,
        "Time(s)": 110
    },
    {
        "Altitude(m)": 612175.3245355772,
        "Argument of Periapsis(deg)": 0.0012502735095955685,
        "Eccentricity": 0.0,
        "Inclination(deg)": 60.0,
        "Latitude(deg)": 60.12680124789937,
        "Longitude(deg)": 178.04467460249174,
        "Mean Anomaly(deg)": 89.25947374554197,
        "RAAN(deg)": 189.9949594103231,
        "Satellite Name": "Test1 841",
        "Satellite Number": 841,
        "Semi-Major Axis(m)": 6980739.136638005,
        "Time(s)": 120
    },
    {
        "Altitude(m)": 612177.0904677816,
        "Argument of Periapsis(deg)": 0.0013544629687285324,
        "Eccentricity": 0.0,
        "Inclination(deg)": 60.0,
        "Latitude(deg)": 60.13483918752554,
        "Longitude(deg)": 179.24411165328547,
        "Mean Anomaly(deg)": 89.87957989100381,
        "RAAN(deg)": 189.99453936118337,
        "Satellite Name": "Test1 841",
        "Satellite Number": 841,
        "Semi-Major Axis(m)": 6980739.136638005,
        "Time(s)": 130
    },
    {
        "Altitude(m)": 612176.4118823066,
        "Argument of Periapsis(deg)": 0.0014586524278614966,
        "Eccentricity": 0.0,
        "Inclination(deg)": 60.0,
        "Latitude(deg)": 60.131254672975814,
        "Longitude(deg)": -179.55628373344715,
        "Mean Anomaly(deg)": 90.49968603646565,
        "RAAN(deg)": 189.9941193120436,
        "Satellite Name": "Test1 841",
        "Satellite Number": 841,
        "Semi-Major Axis(m)": 6980739.136638005,
        "Time(s)": 140
    },
    {
        "Altitude(m)": 612173.2892027226,
        "Argument of Periapsis(deg)": 0.0015628418869944607,
        "Eccentricity": 0.0,
        "Inclination(deg)": 60.0,
        "Latitude(deg)": 60.116051889863606,
        "Longitude(deg)": -178.35738605407548,
        "Mean Anomaly(deg)": 91.11979218192745,
        "RAAN(deg)": 189.99369926290385,
        "Satellite Name": "Test1 841",
        "Satellite Number": 841,
        "Semi-Major Axis(m)": 6980739.136638005,
        "Time(s)": 150
    },
    {
        "Altitude(m)": 612167.7242538183,
        "Argument of Periapsis(deg)": 0.0016670313461274247,
        "Eccentricity": 0.0,
        "Inclination(deg)": 60.0,
        "Latitude(deg)": 60.08924856573392,
        "Longitude(deg)": -177.16006598830387,
        "Mean Anomaly(deg)": 91.73989832738928,
        "RAAN(deg)": 189.99327921376414,
        "Satellite Name": "Test1 841",
        "Satellite Number": 841,
        "Semi-Major Axis(m)": 6980739.136638005,
        "Time(s)": 160
    },
    {
        "Altitude(m)": 612159.7202607442,
        "Argument of Periapsis(deg)": 0.0017712208052603888,
        "Eccentricity": 0.0,
        "Inclination(deg)": 60.0,
        "Latitude(deg)": 60.05087586715074,
        "Longitude(deg)": -175.96518734798497,
        "Mean Anomaly(deg)": 92.36000447285112,
        "RAAN(deg)": 189.9928591646244,
        "Satellite Name": "Test1 841",
        "Satellite Number": 841,
        "Semi-Major Axis(m)": 6980739.136638005,
        "Time(s)": 170
    },
    {
        "Altitude(m)": 612149.2818474808,
        "Argument of Periapsis(deg)": 0.001875410264393353,
        "Eccentricity": 0.0,
        "Inclination(deg)": 60.0,
        "Latitude(deg)": 60.000978219607774,
        "Longitude(deg)": -174.77360259834668,
        "Mean Anomaly(deg)": 92.98011061831295,
        "RAAN(deg)": 189.99243911548464,
        "Satellite Name": "Test1 841",
        "Satellite Number": 841,
        "Semi-Major Axis(m)": 6980739.136638005,
        "Time(s)": 180
    },
    {
        "Altitude(m)": 612136.4150346585,
        "Argument of Periapsis(deg)": 0.0019795997235263173,
        "Eccentricity": 0.0,
        "Inclination(deg)": 60.0,
        "Latitude(deg)": 59.93961305268597,
        "Longitude(deg)": -173.58614850947154,
        "Mean Anomaly(deg)": 93.60021676377475,
        "RAAN(deg)": 189.99201906634488,
        "Satellite Name": "Test1 841",
        "Satellite Number": 841,
        "Semi-Major Axis(m)": 6980739.136638005,
        "Time(s)": 190
    }
]